{
  "type": "FeatureCollection",
  "features": [
    {
      "type": "Feature",
      "properties": {
        "norad_id": 34874,
        "name": "COSMOS 2251 DEB",
        "group": "cosmos-2251-debris",
        "lat": 39.09004573516766,
        "lon": -108.4184341549516,
        "alt_km": 734.6916203863902,
        "timestamp": "2025-12-06T14:35:37.521450+00:00",
        "meta_object_name": "COSMOS 2251 DEB",
        "meta_object_id": "1993-036ACM",
        "meta_epoch": "2025-12-06T01:24:39.076704",
        "meta_mean_motion": 14.36256003,
        "meta_eccentricity": 0.00513517,
        "meta_inclination": 74.0397,
        "meta_ra_of_asc_node": 86.0335,
        "meta_arg_of_pericenter": 113.4431,
        "meta_mean_anomaly": 66.2623,
        "meta_ephemeris_type": 0,
        "meta_classification_type": "U",
        "meta_norad_cat_id": 34874,
        "meta_element_set_no": 999,
        "meta_rev_at_epoch": 86948,
        "meta_bstar": 0.0016934331,
        "meta_mean_motion_dot": 4.999e-05,
        "meta_mean_motion_ddot": 0,
        "tle_line1": "1 34874U 93036ACM 25340.05878561  .00004999  00000+0  16934-2 0  9996",
        "tle_line2": "2 34874  74.0397  86.0335 0051351 113.4431  66.2623 14.36256003869485"
      },
      "geometry": {
        "type": "Point",
        "coordinates": [
          -108.4184341549516,
          39.09004573516766
        ]
      }
    },
    {
      "type": "Feature",
      "properties": {
        "norad_id": 34875,
        "name": "COSMOS 2251 DEB",
        "group": "cosmos-2251-debris",
        "lat": -73.76428659953436,
        "lon": 90.42897636462207,
        "alt_km": 725.5688838812921,
        "timestamp": "2025-12-06T14:35:37.521460+00:00",
        "meta_object_name": "COSMOS 2251 DEB",
        "meta_object_id": "1993-036ACN",
        "meta_epoch": "2025-12-06T07:31:31.412064",
        "meta_mean_motion": 14.4889239,
        "meta_eccentricity": 0.00160203,
        "meta_inclination": 74.0433,
        "meta_ra_of_asc_node": 170.2542,
        "meta_arg_of_pericenter": 294.3137,
        "meta_mean_anomaly": 243.1704,
        "meta_ephemeris_type": 0,
        "meta_classification_type": "U",
        "meta_norad_cat_id": 34875,
        "meta_element_set_no": 999,
        "meta_rev_at_epoch": 87662,
        "meta_bstar": 0.00082171451,
        "meta_mean_motion_dot": 3.088e-05,
        "meta_mean_motion_ddot": 0,
        "tle_line1": "1 34875U 93036ACN 25340.31355801  .00003088  00000+0  82171-3 0  9998",
        "tle_line2": "2 34875  74.0433 170.2542 0016020 294.3137 243.1704 14.48892390876627"
      },
      "geometry": {
        "type": "Point",
        "coordinates": [
          90.42897636462207,
          -73.76428659953436
        ]
      }
    },
    {
      "type": "Feature",
      "properties": {
        "norad_id": 34878,
        "name": "COSMOS 2251 DEB",
        "group": "cosmos-2251-debris",
        "lat": -13.14277389453839,
        "lon": -119.09867721155126,
        "alt_km": 1381.1931721125757,
        "timestamp": "2025-12-06T14:35:37.521470+00:00",
        "meta_object_name": "COSMOS 2251 DEB",
        "meta_object_id": "1993-036ACR",
        "meta_epoch": "2025-12-06T04:52:29.725248",
        "meta_mean_motion": 13.44179609,
        "meta_eccentricity": 0.04353075,
        "meta_inclination": 73.9658,
        "meta_ra_of_asc_node": 57.6935,
        "meta_arg_of_pericenter": 42.5036,
        "meta_mean_anomaly": 349.7883,
        "meta_ephemeris_type": 0,
        "meta_classification_type": "U",
        "meta_norad_cat_id": 34878,
        "meta_element_set_no": 999,
        "meta_rev_at_epoch": 81185,
        "meta_bstar": 0.00077477418,
        "meta_mean_motion_dot": 7.75e-06,
        "meta_mean_motion_ddot": 0,
        "tle_line1": "1 34878U 93036ACR 25340.20312182  .00000775  00000+0  77477-3 0  9997",
        "tle_line2": "2 34878  73.9658  57.6935 0435307  42.5036 349.7883 13.44179609811856"
      },
      "geometry": {
        "type": "Point",
        "coordinates": [
          -119.09867721155126,
          -13.14277389453839
        ]
      }
    },
    {
      "type": "Feature",
      "properties": {
        "norad_id": 34882,
        "name": "COSMOS 2251 DEB",
        "group": "cosmos-2251-debris",
        "lat": -59.999896432109566,
        "lon": -152.3848629476696,
        "alt_km": 674.5116359358999,
        "timestamp": "2025-12-06T14:35:37.521480+00:00",
        "meta_object_name": "COSMOS 2251 DEB",
        "meta_object_id": "1993-036ACV",
        "meta_epoch": "2025-12-04T16:53:13.957728",
        "meta_mean_motion": 14.61571814,
        "meta_eccentricity": 0.00824762,
        "meta_inclination": 74.0468,
        "meta_ra_of_asc_node": 240.9544,
        "meta_arg_of_pericenter": 9.9257,
        "meta_mean_anomaly": 350.3513,
        "meta_ephemeris_type": 0,
        "meta_classification_type": "U",
        "meta_norad_cat_id": 34882,
        "meta_element_set_no": 999,
        "meta_rev_at_epoch": 88407,
        "meta_bstar": 0.0003857555,
        "meta_mean_motion_dot": 1.979e-05,
        "meta_mean_motion_ddot": 0,
        "tle_line1": "1 34882U 93036ACV 25338.70363377  .00001979  00000+0  38576-3 0  9990",
        "tle_line2": "2 34882  74.0468 240.9544 0082476   9.9257 350.3513 14.61571814884078"
      },
      "geometry": {
        "type": "Point",
        "coordinates": [
          -152.3848629476696,
          -59.999896432109566
        ]
      }
    },
    {
      "type": "Feature",
      "properties": {
        "norad_id": 34883,
        "name": "COSMOS 2251 DEB",
        "group": "cosmos-2251-debris",
        "lat": -28.620980654339878,
        "lon": -96.96520615789665,
        "alt_km": 684.1719560784722,
        "timestamp": "2025-12-06T14:35:37.521490+00:00",
        "meta_object_name": "COSMOS 2251 DEB",
        "meta_object_id": "1993-036ACW",
        "meta_epoch": "2025-12-06T05:20:55.478976",
        "meta_mean_motion": 14.51130245,
        "meta_eccentricity": 0.00948071,
        "meta_inclination": 74.2015,
        "meta_ra_of_asc_node": 74.8641,
        "meta_arg_of_pericenter": 261.0481,
        "meta_mean_anomaly": 97.994,
        "meta_ephemeris_type": 0,
        "meta_classification_type": "U",
        "meta_norad_cat_id": 34883,
        "meta_element_set_no": 999,
        "meta_rev_at_epoch": 86345,
        "meta_bstar": 0.0073550576,
        "meta_mean_motion_dot": 0.0003103,
        "meta_mean_motion_ddot": 0,
        "tle_line1": "1 34883U 93036ACW 25340.22286434  .00031030  00000+0  73551-2 0  9991",
        "tle_line2": "2 34883  74.2015  74.8641 0094807 261.0481  97.9940 14.51130245863457"
      },
      "geometry": {
        "type": "Point",
        "coordinates": [
          -96.96520615789665,
          -28.620980654339878
        ]
      }
    },
    {
      "type": "Feature",
      "properties": {
        "norad_id": 34884,
        "name": "COSMOS 2251 DEB",
        "group": "cosmos-2251-debris",
        "lat": 14.326530841855236,
        "lon": 73.22082955257444,
        "alt_km": 600.3406176678272,
        "timestamp": "2025-12-06T14:35:37.521500+00:00",
        "meta_object_name": "COSMOS 2251 DEB",
        "meta_object_id": "1993-036ACX",
        "meta_epoch": "2025-12-06T00:48:27.449856",
        "meta_mean_motion": 14.89553335,
        "meta_eccentricity": 0.00025373,
        "meta_inclination": 74.0182,
        "meta_ra_of_asc_node": 70.1727,
        "meta_arg_of_pericenter": 123.4443,
        "meta_mean_anomaly": 52.5862,
        "meta_ephemeris_type": 0,
        "meta_classification_type": "U",
        "meta_norad_cat_id": 34884,
        "meta_element_set_no": 999,
        "meta_rev_at_epoch": 87705,
        "meta_bstar": 0.0041780273,
        "meta_mean_motion_dot": 0.00040056,
        "meta_mean_motion_ddot": 0,
        "tle_line1": "1 34884U 93036ACX 25340.03365104  .00040056  00000+0  41780-2 0  9990",
        "tle_line2": "2 34884  74.0182  70.1727 0002537 123.4443  52.5862 14.89553335877054"
      },
      "geometry": {
        "type": "Point",
        "coordinates": [
          73.22082955257444,
          14.326530841855236
        ]
      }
    },
    {
      "type": "Feature",
      "properties": {
        "norad_id": 34885,
        "name": "COSMOS 2251 DEB",
        "group": "cosmos-2251-debris",
        "lat": 25.85360175880727,
        "lon": -157.4572284632492,
        "alt_km": 722.8435526146959,
        "timestamp": "2025-12-06T14:35:37.521510+00:00",
        "meta_object_name": "COSMOS 2251 DEB",
        "meta_object_id": "1993-036ACY",
        "meta_epoch": "2025-12-06T00:06:31.619232",
        "meta_mean_motion": 14.51450444,
        "meta_eccentricity": 0.00153702,
        "meta_inclination": 74.0307,
        "meta_ra_of_asc_node": 195.7026,
        "meta_arg_of_pericenter": 281.3994,
        "meta_mean_anomaly": 193.1527,
        "meta_ephemeris_type": 0,
        "meta_classification_type": "U",
        "meta_norad_cat_id": 34885,
        "meta_element_set_no": 999,
        "meta_rev_at_epoch": 87381,
        "meta_bstar": 0.0011296703,
        "meta_mean_motion_dot": 4.493e-05,
        "meta_mean_motion_ddot": 0,
        "tle_line1": "1 34885U 93036ACY 25340.00453263  .00004493  00000+0  11297-2 0  9997",
        "tle_line2": "2 34885  74.0307 195.7026 0015370 281.3994 193.1527 14.51450444873810"
      },
      "geometry": {
        "type": "Point",
        "coordinates": [
          -157.4572284632492,
          25.85360175880727
        ]
      }
    }
  ]
}